[{"OBJECT_NAME":"STARLINK-35962","OBJECT_ID":"2025-265C","EPOCH":"2026-03-09T13:59:03.583968","MEAN_MOTION":15.27598219,"ECCENTRICITY":7.99e-5,"INCLINATION":42.996,"RA_OF_ASC_NODE":278.8397,"ARG_OF_PERICENTER":352.4259,"MEAN_ANOMALY":7.6581,"EPHEMERIS_TYPE":0,"CLASSIFICATION_TYPE":"U","NORAD_CAT_ID":66518,"ELEMENT_SET_NO":999,"REV_AT_EPOCH":1709,"BSTAR":0.00097121,"MEAN_MOTION_DOT":0.00026575,"MEAN_MOTION_DDOT":0},{"OBJECT_NAME":"FENGYUN 1C DEB","OBJECT_ID":"1999-025BZU","EPOCH":"2026-03-09T17:19:51.665664","MEAN_MOTION":15.28412118,"ECCENTRICITY":0.00188802,"INCLINATION":98.9598,"RA_OF_ASC_NODE":354.2029,"ARG_OF_PERICENTER":82.3682,"MEAN_ANOMALY":277.9697,"EPHEMERIS_TYPE":0,"CLASSIFICATION_TYPE":"U","NORAD_CAT_ID":31614,"ELEMENT_SET_NO":999,"REV_AT_EPOCH":97742,"BSTAR":0.011500831,"MEAN_MOTION_DOT":0.0033373,"MEAN_MOTION_DDOT":0}]
